[
   {
      "name": "STARLINK-1808",
      "line1": "1 46707U 20073AP  21092.84687842  .00000182  00000-0  31237-4 0  9998",
      "line2": "2 46707  53.0590  30.3711 0006981 319.4659  40.5810 15.06401008 25835",
      "bstar": 3.1237,
      "inc": 53.059,
      "raan": 30.3711,
      "ecc": 0.0006981,
      "argp": 319.4659,
      "nu": 40.581,
      "mmo": 15.06401008,
      "a": 6925.34547
   },
   {
      "name": "STARLINK-1809",
      "line1": "1 46708U 20073AQ  21092.85056667 -.00000468  00000-0 -12376-4 0  9997",
      "line2": "2 46708  53.0562  30.3770 0006360 322.0782  37.9758 15.06397467 26316",
      "bstar": -1.2376,
      "inc": 53.0562,
      "raan": 30.377,
      "ecc": 0.000636,
      "argp": 322.0782,
      "nu": 37.9758,
      "mmo": 15.06397467,
      "a": 6925.35632
   },
   {
      "name": "STARLINK-1810",
      "line1": "1 46709U 20073AR  21092.91091124 -.00000950  00000-0 -44952-4 0  9993",
      "line2": "2 46709  53.0546  65.1127 0000722  84.6954 275.4117 15.06392497 25347",
      "bstar": -4.4952,
      "inc": 53.0546,
      "raan": 65.1127,
      "ecc": 7.22e-05,
      "argp": 84.6954,
      "nu": 275.4117,
      "mmo": 15.06392497,
      "a": 6925.37155
   },
   {
      "name": "STARLINK-1811",
      "line1": "1 46710U 20073AS  21092.41058087  .00000795  00000-0  72222-4 0  9997",
      "line2": "2 46710  53.0552  67.3668 0000700  73.7459 286.3607 15.06396650 25750",
      "bstar": 7.2222,
      "inc": 53.0552,
      "raan": 67.3668,
      "ecc": 7e-05,
      "argp": 73.7459,
      "nu": 286.3607,
      "mmo": 15.0639665,
      "a": 6925.35883
   },
   {
      "name": "STARLINK-1813",
      "line1": "1 46711U 20073AT  21092.91507783  .00000929  00000-0  81290-4 0  9999",
      "line2": "2 46711  53.0571  50.0990 0001595  78.2356 281.8812 15.06396572 25568",
      "bstar": 8.129,
      "inc": 53.0571,
      "raan": 50.099,
      "ecc": 0.0001595,
      "argp": 78.2356,
      "nu": 281.8812,
      "mmo": 15.06396572,
      "a": 6925.35907
   },
   {
      "name": "STARLINK-1814",
      "line1": "1 46712U 20073AU  21092.88096969  .00001144  00000-0  95727-4 0  9995",
      "line2": "2 46712  53.0573  50.2421 0001594  76.3015 283.8151 15.06395376 25550",
      "bstar": 9.5727,
      "inc": 53.0573,
      "raan": 50.2421,
      "ecc": 0.0001594,
      "argp": 76.3015,
      "nu": 283.8151,
      "mmo": 15.06395376,
      "a": 6925.36273
   },
   {
      "name": "STARLINK-1815",
      "line1": "1 46713U 20073AV  21092.89295751 -.00000821  00000-0 -36248-4 0  9993",
      "line2": "2 46713  53.0549  50.1825 0001090  59.1349 300.9747 15.06396765 25556",
      "bstar": -3.6248,
      "inc": 53.0549,
      "raan": 50.1825,
      "ecc": 0.000109,
      "argp": 59.1349,
      "nu": 300.9747,
      "mmo": 15.06396765,
      "a": 6925.35847
   },
   {
      "name": "STARLINK-1816",
      "line1": "1 46714U 20073AW  21092.88190539 -.00000663  00000-0 -25627-4 0  9994",
      "line2": "2 46714  53.0560  50.2330 0001214  74.8847 285.2276 15.06395835 25556",
      "bstar": -2.5627,
      "inc": 53.056,
      "raan": 50.233,
      "ecc": 0.0001214,
      "argp": 74.8847,
      "nu": 285.2276,
      "mmo": 15.06395835,
      "a": 6925.36132
   },
   {
      "name": "STARLINK-1817",
      "line1": "1 46715U 20073AX  21092.87822161  .00000680  00000-0  64536-4 0  9996",
      "line2": "2 46715  53.0575  50.2544 0001674  75.5700 284.5475 15.06399136 25557",
      "bstar": 6.4536,
      "inc": 53.0575,
      "raan": 50.2544,
      "ecc": 0.0001674,
      "argp": 75.57,
      "nu": 284.5475,
      "mmo": 15.06399136,
      "a": 6925.35121
   },
   {
      "name": "STARLINK-1818",
      "line1": "1 46716U 20073AY  21092.89342846  .00000965  00000-0  83666-4 0  9997",
      "line2": "2 46716  53.0560  65.2050 0000706  62.8087 297.2973 15.06402041 25343",
      "bstar": 8.3666,
      "inc": 53.056,
      "raan": 65.205,
      "ecc": 7.06e-05,
      "argp": 62.8087,
      "nu": 297.2973,
      "mmo": 15.06402041,
      "a": 6925.3423
   },
   {
      "name": "STARLINK-1820",
      "line1": "1 46717U 20073AZ  21092.89664798 -.00000087  00000-0  13067-4 0  9995",
      "line2": "2 46717  53.0554  50.1740 0001197  82.7498 277.3627 15.06400198 25557",
      "bstar": 1.3067,
      "inc": 53.0554,
      "raan": 50.174,
      "ecc": 0.0001197,
      "argp": 82.7498,
      "nu": 277.3627,
      "mmo": 15.06400198,
      "a": 6925.34795
   },
   {
      "name": "STARLINK-1821",
      "line1": "1 46718U 20073BA  21092.93768028  .00000664  00000-0  63476-4 0  9991",
      "line2": "2 46718  53.0554  64.9993 0001103  62.1338 297.9763 15.06395139 25358",
      "bstar": 6.3476,
      "inc": 53.0554,
      "raan": 64.9993,
      "ecc": 0.0001103,
      "argp": 62.1338,
      "nu": 297.9763,
      "mmo": 15.06395139,
      "a": 6925.36346
   },
   {
      "name": "STARLINK-1822",
      "line1": "1 46719U 20073BB  21092.85425789 -.00001066  00000-0 -52566-4 0  9994",
      "line2": "2 46719  53.0546  30.3562 0005735 322.6941  37.3649 15.06392182 26319",
      "bstar": -5.2566,
      "inc": 53.0546,
      "raan": 30.3562,
      "ecc": 0.0005735,
      "argp": 322.6941,
      "nu": 37.3649,
      "mmo": 15.06392182,
      "a": 6925.37252
   },
   {
      "name": "STARLINK-1823",
      "line1": "1 46720U 20073BC  21092.81740410  .00000932  00000-0  81507-4 0  9999",
      "line2": "2 46720  53.0426  30.6043 0002218  73.4692 286.6541 15.06395421 25826",
      "bstar": 8.1507,
      "inc": 53.0426,
      "raan": 30.6043,
      "ecc": 0.0002218,
      "argp": 73.4692,
      "nu": 286.6541,
      "mmo": 15.06395421,
      "a": 6925.36259
   },
   {
      "name": "STARLINK-1824",
      "line1": "1 46721U 20073BD  21092.73372210  .00016479  11622-4  26300-4 0  9999",
      "line2": "2 46721  53.0442   2.6393 0002622 182.2293 177.8728 16.06232448 26208",
      "bstar": 2.63,
      "inc": 53.0442,
      "raan": 2.6393,
      "ecc": 0.0002622,
      "argp": 182.2293,
      "nu": 177.8728,
      "mmo": 16.06232448,
      "a": 6635.33588
   },
   {
      "name": "STARLINK-1825",
      "line1": "1 46722U 20073BE  21092.89711140  .00000496  00000-0  52169-4 0  9994",
      "line2": "2 46722  53.0551  65.1698 0001304  76.3691 283.7443 15.06395591 25346",
      "bstar": 5.2169,
      "inc": 53.0551,
      "raan": 65.1698,
      "ecc": 0.0001304,
      "argp": 76.3691,
      "nu": 283.7443,
      "mmo": 15.06395591,
      "a": 6925.36207
   },
   {
      "name": "STARLINK-1826",
      "line1": "1 46723U 20073BF  21092.85656656  .00000336  00000-0  41464-4 0  9990",
      "line2": "2 46723  53.0546  25.3465 0001933  62.6491 297.4694 15.06394990 25909",
      "bstar": 4.1464,
      "inc": 53.0546,
      "raan": 25.3465,
      "ecc": 0.0001933,
      "argp": 62.6491,
      "nu": 297.4694,
      "mmo": 15.0639499,
      "a": 6925.36391
   },
   {
      "name": "STARLINK-1827",
      "line1": "1 46724U 20073BG  21092.87267436 -.00000617  00000-0 -22319-4 0  9999",
      "line2": "2 46724  53.0477  30.3388 0008004 319.1762  40.8627 15.06393708 25834",
      "bstar": -2.2319,
      "inc": 53.0477,
      "raan": 30.3388,
      "ecc": 0.0008004,
      "argp": 319.1762,
      "nu": 40.8627,
      "mmo": 15.06393708,
      "a": 6925.36784
   },
   {
      "name": "STARLINK-1828",
      "line1": "1 46725U 20073BH  21092.92659336  .00000595  00000-0  58820-4 0  9999",
      "line2": "2 46725  53.0548  65.0451 0000517  72.8687 287.2359 15.06404051 25350",
      "bstar": 5.882,
      "inc": 53.0548,
      "raan": 65.0451,
      "ecc": 5.17e-05,
      "argp": 72.8687,
      "nu": 287.2359,
      "mmo": 15.06404051,
      "a": 6925.33614
   },
   {
      "name": "STARLINK-1829",
      "line1": "1 46726U 20073BJ  21092.88559070  .00000463  00000-0  50232-4 0  9992",
      "line2": "2 46726  53.0497  50.2599 0011597  33.4035 326.7684 15.06402584 25554",
      "bstar": 5.0232,
      "inc": 53.0497,
      "raan": 50.2599,
      "ecc": 0.0011597,
      "argp": 33.4035,
      "nu": 326.7684,
      "mmo": 15.06402584,
      "a": 6925.34064
   },
   {
      "name": "STARLINK-1830",
      "line1": "1 46727U 20073BK  21092.51009137 -.00000491  00000-0 -14059-4 0  9997",
      "line2": "2 46727  53.0592  26.9066 0001752  67.5207 292.5968 15.06390629 26339",
      "bstar": -1.4059,
      "inc": 53.0592,
      "raan": 26.9066,
      "ecc": 0.0001752,
      "argp": 67.5207,
      "nu": 292.5968,
      "mmo": 15.06390629,
      "a": 6925.37728
   },
   {
      "name": "STARLINK-1831",
      "line1": "1 46728U 20073BL  21092.89757085  .00000005  00000-0  19247-4 0  9994",
      "line2": "2 46728  53.0494  40.2113 0002058  71.9172 288.2041 15.06395062 25691",
      "bstar": 1.9247,
      "inc": 53.0494,
      "raan": 40.2113,
      "ecc": 0.0002058,
      "argp": 71.9172,
      "nu": 288.2041,
      "mmo": 15.06395062,
      "a": 6925.36369
   },
   {
      "name": "STARLINK-1841",
      "line1": "1 46729U 20073BM  21092.83787126  .00077737  00000-0  83239-3 0  9995",
      "line2": "2 46729  53.0547  15.9337 0005163  89.0569 271.1036 15.63178072 26035",
      "bstar": 83.239,
      "inc": 53.0547,
      "raan": 15.9337,
      "ecc": 0.0005163,
      "argp": 89.0569,
      "nu": 271.1036,
      "mmo": 15.63178072,
      "a": 6756.62069
   },
   {
      "name": "STARLINK-1847",
      "line1": "1 46739U 20074A   21092.87649200  .00456751  00000-0  56593-2 0  9990",
      "line2": "2 46739  53.0585 124.2265 0002429 148.5879 211.5278 15.57991653 25181",
      "bstar": 565.93,
      "inc": 53.0585,
      "raan": 124.2265,
      "ecc": 0.0002429,
      "argp": 148.5879,
      "nu": 211.5278,
      "mmo": 15.57991653,
      "a": 6771.60718
   }
]